{"fetched_at":"2026-07-15T17:46:49.740Z","source":"https://celestrak.org/NORAD/elements/gp.php?GROUP=qianfan&FORMAT=JSON","constellation":"qianfan","records":[{"OBJECT_NAME":"QIANFAN-161","OBJECT_ID":"2026-108S","EPOCH":"2026-07-15T02:52:52.163616","CLASSIFICATION_TYPE":"U","MEAN_MOTION":13.73274139,"ECCENTRICITY":0.0020598,"INCLINATION":89.0106,"RA_OF_ASC_NODE":19.1934,"ARG_OF_PERICENTER":18.8343,"MEAN_ANOMALY":341.3578,"EPHEMERIS_TYPE":0,"NORAD_CAT_ID":69120,"ELEMENT_SET_NO":999,"REV_AT_EPOCH":824,"BSTAR":-2.2192,"MEAN_MOTION_DOT":-0.01929945,"MEAN_MOTION_DDOT":0},{"OBJECT_NAME":"QIANFAN-162","OBJECT_ID":"2026-108T","EPOCH":"2026-07-15T02:43:55.394112","CLASSIFICATION_TYPE":"U","MEAN_MOTION":13.66409846,"ECCENTRICITY":0.0023917,"INCLINATION":89.0091,"RA_OF_ASC_NODE":19.2083,"ARG_OF_PERICENTER":30.7164,"MEAN_ANOMALY":329.539,"EPHEMERIS_TYPE":0,"NORAD_CAT_ID":69121,"ELEMENT_SET_NO":999,"REV_AT_EPOCH":822,"BSTAR":-2.5381,"MEAN_MOTION_DOT":-0.01971008,"MEAN_MOTION_DDOT":0},{"OBJECT_NAME":"QIANFAN-163","OBJECT_ID":"2026-121A","EPOCH":"2026-07-08T23:20:22.023168","CLASSIFICATION_TYPE":"U","MEAN_MOTION":13.53894414,"ECCENTRICITY":0.00204807,"INCLINATION":89.0049,"RA_OF_ASC_NODE":298.3591,"ARG_OF_PERICENTER":118.563,"MEAN_ANOMALY":241.7588,"EPHEMERIS_TYPE":0,"NORAD_CAT_ID":69325,"ELEMENT_SET_NO":999,"REV_AT_EPOCH":511,"BSTAR":-0.000006639878,"MEAN_MOTION_DOT":8e-8,"MEAN_MOTION_DDOT":0},{"OBJECT_NAME":"QIANFAN-164","OBJECT_ID":"2026-121B","EPOCH":"2026-07-13T16:07:09.757344","CLASSIFICATION_TYPE":"U","MEAN_MOTION":13.49695561,"ECCENTRICITY":0.00228451,"INCLINATION":89.0183,"RA_OF_ASC_NODE":297.8725,"ARG_OF_PERICENTER":112.6356,"MEAN_ANOMALY":247.7213,"EPHEMERIS_TYPE":0,"NORAD_CAT_ID":69326,"ELEMENT_SET_NO":999,"REV_AT_EPOCH":574,"BSTAR":0.000078131509,"MEAN_MOTION_DOT":6.2e-7,"MEAN_MOTION_DDOT":0},{"OBJECT_NAME":"QIANFAN-165","OBJECT_ID":"2026-124A","EPOCH":"2026-07-14T22:15:09.508032","CLASSIFICATION_TYPE":"U","MEAN_MOTION":13.91677827,"ECCENTRICITY":0.0005141,"INCLINATION":88.9963,"RA_OF_ASC_NODE":358.938,"ARG_OF_PERICENTER":73.8015,"MEAN_ANOMALY":286.3724,"EPHEMERIS_TYPE":0,"NORAD_CAT_ID":69382,"ELEMENT_SET_NO":999,"REV_AT_EPOCH":572,"BSTAR":0.000011915,"MEAN_MOTION_DOT":2.9e-7,"MEAN_MOTION_DDOT":0},{"OBJECT_NAME":"QIANFAN-166","OBJECT_ID":"2026-124B","EPOCH":"2026-07-14T21:26:18.763008","CLASSIFICATION_TYPE":"U","MEAN_MOTION":13.93938077,"ECCENTRICITY":0.000529,"INCLINATION":89.0066,"RA_OF_ASC_NODE":358.9153,"ARG_OF_PERICENTER":55.3886,"MEAN_ANOMALY":304.7788,"EPHEMERIS_TYPE":0,"NORAD_CAT_ID":69383,"ELEMENT_SET_NO":999,"REV_AT_EPOCH":572,"BSTAR":0.000015448,"MEAN_MOTION_DOT":3.4e-7,"MEAN_MOTION_DDOT":0},{"OBJECT_NAME":"QIANFAN-167","OBJECT_ID":"2026-124C","EPOCH":"2026-07-14T22:06:57.892032","CLASSIFICATION_TYPE":"U","MEAN_MOTION":13.90198693,"ECCENTRICITY":0.0006707,"INCLINATION":88.9962,"RA_OF_ASC_NODE":358.9349,"ARG_OF_PERICENTER":73.0248,"MEAN_ANOMALY":287.166,"EPHEMERIS_TYPE":0,"NORAD_CAT_ID":69384,"ELEMENT_SET_NO":999,"REV_AT_EPOCH":572,"BSTAR":0.000012803,"MEAN_MOTION_DOT":2.9e-7,"MEAN_MOTION_DDOT":0},{"OBJECT_NAME":"QIANFAN-168","OBJECT_ID":"2026-124D","EPOCH":"2026-07-15T04:14:01.972608","CLASSIFICATION_TYPE":"U","MEAN_MOTION":13.92250071,"ECCENTRICITY":0.0007783,"INCLINATION":89,"RA_OF_ASC_NODE":358.8968,"ARG_OF_PERICENTER":63.8657,"MEAN_ANOMALY":296.3318,"EPHEMERIS_TYPE":0,"NORAD_CAT_ID":69385,"ELEMENT_SET_NO":999,"REV_AT_EPOCH":576,"BSTAR":0.000011089,"MEAN_MOTION_DOT":2.8e-7,"MEAN_MOTION_DDOT":0},{"OBJECT_NAME":"QIANFAN-169","OBJECT_ID":"2026-124E","EPOCH":"2026-07-15T03:51:22.630176","CLASSIFICATION_TYPE":"U","MEAN_MOTION":13.93435843,"ECCENTRICITY":0.0008228,"INCLINATION":88.9998,"RA_OF_ASC_NODE":358.8944,"ARG_OF_PERICENTER":71.6505,"MEAN_ANOMALY":288.5565,"EPHEMERIS_TYPE":0,"NORAD_CAT_ID":69386,"ELEMENT_SET_NO":999,"REV_AT_EPOCH":576,"BSTAR":0.00001377,"MEAN_MOTION_DOT":3.2e-7,"MEAN_MOTION_DDOT":0},{"OBJECT_NAME":"QIANFAN-170","OBJECT_ID":"2026-124F","EPOCH":"2026-07-14T22:06:07.664256","CLASSIFICATION_TYPE":"U","MEAN_MOTION":13.95313391,"ECCENTRICITY":0.0008209,"INCLINATION":88.9964,"RA_OF_ASC_NODE":358.9153,"ARG_OF_PERICENTER":52.3009,"MEAN_ANOMALY":307.891,"EPHEMERIS_TYPE":0,"NORAD_CAT_ID":69387,"ELEMENT_SET_NO":999,"REV_AT_EPOCH":573,"BSTAR":0.0000019995,"MEAN_MOTION_DOT":1.6e-7,"MEAN_MOTION_DDOT":0},{"OBJECT_NAME":"QIANFAN-171","OBJECT_ID":"2026-124G","EPOCH":"2026-07-14T21:44:09.938112","CLASSIFICATION_TYPE":"U","MEAN_MOTION":13.95361506,"ECCENTRICITY":0.0005465,"INCLINATION":89.0043,"RA_OF_ASC_NODE":358.9029,"ARG_OF_PERICENTER":86.6868,"MEAN_ANOMALY":273.4934,"EPHEMERIS_TYPE":0,"NORAD_CAT_ID":69388,"ELEMENT_SET_NO":999,"REV_AT_EPOCH":573,"BSTAR":0.0000071626,"MEAN_MOTION_DOT":2.3e-7,"MEAN_MOTION_DDOT":0},{"OBJECT_NAME":"QIANFAN-172","OBJECT_ID":"2026-124H","EPOCH":"2026-07-15T04:39:57.657312","CLASSIFICATION_TYPE":"U","MEAN_MOTION":13.96002251,"ECCENTRICITY":0.0006029,"INCLINATION":89,"RA_OF_ASC_NODE":358.8821,"ARG_OF_PERICENTER":67.0921,"MEAN_ANOMALY":293.0891,"EPHEMERIS_TYPE":0,"NORAD_CAT_ID":69389,"ELEMENT_SET_NO":999,"REV_AT_EPOCH":577,"BSTAR":0.0000021782,"MEAN_MOTION_DOT":1.7e-7,"MEAN_MOTION_DDOT":0},{"OBJECT_NAME":"QIANFAN-173","OBJECT_ID":"2026-124J","EPOCH":"2026-07-15T04:16:23.663424","CLASSIFICATION_TYPE":"U","MEAN_MOTION":13.96345278,"ECCENTRICITY":0.000684,"INCLINATION":88.9997,"RA_OF_ASC_NODE":358.8804,"ARG_OF_PERICENTER":61.6105,"MEAN_ANOMALY":298.576,"EPHEMERIS_TYPE":0,"NORAD_CAT_ID":69390,"ELEMENT_SET_NO":999,"REV_AT_EPOCH":577,"BSTAR":0.000019195,"MEAN_MOTION_DOT":4e-7,"MEAN_MOTION_DDOT":0},{"OBJECT_NAME":"QIANFAN-174","OBJECT_ID":"2026-124K","EPOCH":"2026-07-14T12:14:58.466688","CLASSIFICATION_TYPE":"U","MEAN_MOTION":13.97682932,"ECCENTRICITY":0.00107176,"INCLINATION":88.9996,"RA_OF_ASC_NODE":358.9472,"ARG_OF_PERICENTER":62.6674,"MEAN_ANOMALY":297.5593,"EPHEMERIS_TYPE":0,"NORAD_CAT_ID":69391,"ELEMENT_SET_NO":999,"REV_AT_EPOCH":567,"BSTAR":-1.5443525,"MEAN_MOTION_DOT":-0.02025893,"MEAN_MOTION_DDOT":0},{"OBJECT_NAME":"QIANFAN-175","OBJECT_ID":"2026-124L","EPOCH":"2026-07-14T17:29:16.420128","CLASSIFICATION_TYPE":"U","MEAN_MOTION":13.95135259,"ECCENTRICITY":0.00125163,"INCLINATION":89.0009,"RA_OF_ASC_NODE":358.9237,"ARG_OF_PERICENTER":78.7802,"MEAN_ANOMALY":281.4781,"EPHEMERIS_TYPE":0,"NORAD_CAT_ID":69392,"ELEMENT_SET_NO":999,"REV_AT_EPOCH":571,"BSTAR":-1.625796,"MEAN_MOTION_DOT":-0.0203906,"MEAN_MOTION_DDOT":0},{"OBJECT_NAME":"QIANFAN-176","OBJECT_ID":"2026-124M","EPOCH":"2026-07-14T22:35:14.700768","CLASSIFICATION_TYPE":"U","MEAN_MOTION":13.97054808,"ECCENTRICITY":0.0005126,"INCLINATION":89.0046,"RA_OF_ASC_NODE":358.8987,"ARG_OF_PERICENTER":84.6467,"MEAN_ANOMALY":275.5295,"EPHEMERIS_TYPE":0,"NORAD_CAT_ID":69393,"ELEMENT_SET_NO":999,"REV_AT_EPOCH":573,"BSTAR":0.000022353,"MEAN_MOTION_DOT":4.5e-7,"MEAN_MOTION_DDOT":0}]}
