QIANFAN-161             
1 69120U 26108S   26196.12004819 -.01929945  00000+0 -22192+1 0  9990
2 69120  89.0106  19.1934 0020598  18.8343 341.3578 13.73274139  8247
QIANFAN-162             
1 69121U 26108T   26196.11383558 -.01971008  00000+0 -25381+1 0  9990
2 69121  89.0091  19.2083 0023917  30.7164 329.5390 13.66409846  8224
QIANFAN-163             
1 69325U 26121A   26189.97247712  .00000008  00000+0 -66399-5 0  9998
2 69325  89.0049 298.3591 0020480 118.5630 241.7588 13.53894414  5116
QIANFAN-164             
1 69326U 26121B   26194.67164071  .00000062  00000+0  78132-4 0  9994
2 69326  89.0183 297.8725 0022845 112.6356 247.7213 13.49695561  5743
QIANFAN-165             
1 69382U 26124A   26195.92719338  .00000029  00000+0  11915-4 0  9999
2 69382  88.9963 358.9380 0005141  73.8015 286.3724 13.91677827  5721
QIANFAN-166             
1 69383U 26124B   26195.89327272  .00000034  00000+0  15448-4 0  9999
2 69383  89.0066 358.9153 0005290  55.3886 304.7788 13.93938077  5726
QIANFAN-167             
1 69384U 26124C   26195.92150338  .00000029  00000+0  12803-4 0  9997
2 69384  88.9962 358.9349 0006707  73.0248 287.1660 13.90198693  5722
QIANFAN-168             
1 69385U 26124D   26196.17641172  .00000028  00000+0  11089-4 0  9991
2 69385  89.0000 358.8968 0007783  63.8657 296.3318 13.92250071  5767
QIANFAN-169             
1 69386U 26124E   26196.16067859  .00000032  00000+0  13770-4 0  9999
2 69386  88.9998 358.8944 0008228  71.6505 288.5565 13.93435843  5760
QIANFAN-170             
1 69387U 26124F   26195.92092204  .00000016  00000+0  19995-5 0  9993
2 69387  88.9964 358.9153 0008209  52.3009 307.8910 13.95313391  5732
QIANFAN-171             
1 69388U 26124G   26195.90567058  .00000023  00000+0  71626-5 0  9993
2 69388  89.0043 358.9029 0005465  86.6868 273.4934 13.95361506  5734
QIANFAN-172             
1 69389U 26124H   26196.19441733  .00000017  00000+0  21782-5 0  9998
2 69389  89.0000 358.8821 0006029  67.0921 293.0891 13.96002251  5771
QIANFAN-173             
1 69390U 26124J   26196.17805166  .00000040  00000+0  19195-4 0  9992
2 69390  88.9997 358.8804 0006840  61.6105 298.5760 13.96345278  5776
QIANFAN-174             
1 69391U 26124K   26195.51039892 -.02025893  00000+0 -15444+1 0  9991
2 69391  88.9996 358.9472 0010717  62.6674 297.5593 13.97682932  5672
QIANFAN-175             
1 69392U 26124L   26195.72866227 -.02039060  00000+0 -16258+1 0  9990
2 69392  89.0009 358.9237 0012516  78.7802 281.4781 13.95135259  5718
QIANFAN-176             
1 69393U 26124M   26195.94114237  .00000045  00000+0  22353-4 0  9996
2 69393  89.0046 358.8987 0005126  84.6467 275.5295 13.97054808  5731
